OBJECT_NAME,OBJECT_ID,EPOCH,MEAN_MOTION,ECCENTRICITY,INCLINATION,RA_OF_ASC_NODE,ARG_OF_PERICENTER,MEAN_ANOMALY,EPHEMERIS_TYPE,CLASSIFICATION_TYPE,NORAD_CAT_ID,ELEMENT_SET_NO,REV_AT_EPOCH,BSTAR,MEAN_MOTION_DOT,MEAN_MOTION_DDOT
STARLINK-32192,2024-133R,2026-06-18T10:57:05.033664,15.30194224,.0001231,53.1594,188.6211,76.7970,283.3168,0,U,60316,999,10716,-.57526E-4,-.2062E-4,0
STARLINK-32189,2024-133S,2026-06-18T07:05:03.168384,15.30182129,.0001362,53.1592,189.7482,103.7070,256.4083,0,U,60317,999,10713,-.77503E-4,-.2653E-4,0
STARLINK-32190,2024-133T,2026-06-18T11:33:33.012576,15.30200987,.0001515,53.1609,188.7765,105.0721,255.0447,0,U,60318,999,10707,-.90455E-4,-.3037E-4,0
STARLINK-32182,2024-133U,2026-06-18T13:21:14.656896,15.30229079,.0001235,53.1571,188.5347,84.2875,275.8266,0,U,60319,999,10708,-.11948E-2,-.35608E-3,0
STARLINK-32199,2024-133V,2026-06-18T08:30:00.734688,15.30193562,.000121,53.1594,189.4034,105.1290,254.9845,0,U,60320,999,10705,-.10934E-4,-.683E-5,0
STARLINK-32198,2024-133W,2026-06-18T13:24:52.161120,15.30899878,.0001699,53.1597,188.5510,79.7044,280.4149,0,U,60321,999,10717,.30177E-2,.92112E-3,0
HULIANWAN GAOGUI-02 (HG-02),2024-135A,2026-06-17T12:26:38.820768,1.00267686,.0007308,0.0433,1.4713,5.2904,238.8047,0,U,60327,999,750,0,-.179E-5,0
STARLINK-31745,2024-136A,2026-06-18T16:49:19.462944,15.31705959,.0001452,53.1622,326.2179,101.0786,259.0379,0,U,60329,999,10634,.2026E-4,.264E-5,0
STARLINK-32153,2024-136B,2026-06-18T16:31:25.093632,15.30194242,.0001287,53.1615,326.8470,80.5500,279.5646,0,U,60330,999,10512,.9253E-5,-.85E-6,0
STARLINK-32203,2024-136C,2026-06-18T15:56:24.925632,15.34396200,.0000868,53.1624,316.0425,90.9831,269.1271,0,U,60331,999,10527,.12556E-4,.48E-6,0
STARLINK-32171,2024-136D,2026-06-18T16:35:53.083968,15.31703960,.0001437,53.1616,326.1617,98.9824,261.1340,0,U,60332,999,10513,.37844E-4,.809E-5,0
STARLINK-32133,2024-136E,2026-06-18T16:22:18.597216,15.30198679,.0001617,53.1612,326.8054,62.6831,297.4334,0,U,60333,999,10512,-.13799E-4,-.768E-5,0
STARLINK-32132,2024-136F,2026-06-18T16:13:11.420832,15.30191392,.0001847,53.1616,326.7647,58.4351,301.6830,0,U,60334,999,10512,.25429E-5,-.284E-5,0
STARLINK-32168,2024-136G,2026-06-18T14:34:34.074048,15.30215277,.0001744,53.1632,327.0419,66.7356,293.3828,0,U,60335,999,10511,-.1711E-3,-.5426E-4,0
STARLINK-32079,2024-136H,2026-06-18T14:30:00.684576,15.30194342,.0001056,53.1612,327.0280,99.8353,260.2767,0,U,60336,999,10511,.15448E-4,.98E-6,0
STARLINK-32078,2024-136K,2026-06-18T14:23:56.283072,15.30193663,.0000946,53.1618,327.0022,91.5393,268.5716,0,U,60338,999,10511,-.16435E-5,-.408E-5,0
STARLINK-32175,2024-136L,2026-06-18T14:20:53.742336,15.30203678,.0001462,53.1618,326.9881,83.6687,276.4480,0,U,60339,999,10511,.11509E-3,.3051E-4,0
STARLINK-32176,2024-136M,2026-06-18T17:24:28.171584,15.30184978,.0000794,53.1620,326.3624,106.6425,253.4662,0,U,60340,999,10630,-.77422E-6,-.382E-5,0
STARLINK-32185,2024-136N,2026-06-18T17:13:47.828352,15.30200831,.0001023,53.1623,326.3126,89.3150,270.7968,0,U,60341,999,10513,.2878E-4,.493E-5,0
STARLINK-32221,2024-136P,2026-06-18T17:18:21.566016,15.30196768,.0001171,53.1616,326.3298,74.2817,285.8312,0,U,60342,999,10513,.56189E-4,.1305E-4,0
STARLINK-32083,2024-136Q,2026-06-18T17:19:52.628160,15.30195394,.0001025,53.1619,326.3038,79.3856,280.7260,0,U,60343,999,10513,-.59617E-5,-.536E-5,0
STARLINK-32077,2024-136R,2026-06-18T17:09:14.589216,15.30209939,.0001133,53.1621,326.2937,75.4223,284.6903,0,U,60344,999,10513,-.91254E-4,-.3062E-4,0
STARLINK-32075,2024-136S,2026-06-18T17:03:08.592768,15.30208981,.0000901,53.1615,326.2654,81.6469,278.4634,0,U,60345,999,10513,.65685E-4,.1587E-4,0
STARLINK-32082,2024-136T,2026-06-18T17:04:40.837728,15.30199357,.000125,53.1635,326.2744,88.2366,271.8778,0,U,60346,999,10513,.4248E-4,.899E-5,0
STARLINK-32084,2024-136U,2026-06-18T16:29:10.084128,15.31699024,.0001067,53.1630,326.1194,95.5555,264.5568,0,U,60347,999,10513,.14745E-4,.93E-6,0
STARLINK-32081,2024-136V,2026-06-18T14:35:02.334624,15.31705974,.0001511,53.1615,326.3377,75.7219,284.3951,0,U,60348,999,10512,-.22395E-5,-.435E-5,0
STARLINK-32181,2024-136W,2026-06-18T16:17:02.793120,15.34393967,.0001123,53.1616,324.6500,81.0075,279.1054,0,U,60349,999,10515,.13501E-4,.8E-6,0
STARLINK-32076,2024-136X,2026-06-18T14:28:19.263072,15.31703400,.0001239,53.1621,326.3076,100.6423,259.4718,0,U,60350,999,10512,.16205E-4,.138E-5,0
STARLINK-32097,2024-136Y,2026-06-18T16:14:01.017024,15.34401043,.0001138,53.1605,324.6336,100.9977,259.1154,0,U,60351,999,10515,.10638E-3,.322E-4,0
STRIX-4,2024-137A,2026-06-18T15:41:05.572608,15.32627849,.0018298,43.0153,276.6694,312.1531,47.7768,0,U,60352,999,10424,.45118E-3,.14337E-3,0
