STARLINK-32192          
1 60316U 24133R   26169.45630826 -.00002062  00000+0 -57526-4 0  9997
2 60316  53.1594 188.6211 0001231  76.7970 283.3168 15.30194224107162
STARLINK-32189          
1 60317U 24133S   26169.29517556 -.00002653  00000+0 -77503-4 0  9997
2 60317  53.1592 189.7482 0001362 103.7070 256.4083 15.30182129107135
STARLINK-32190          
1 60318U 24133T   26169.48163209 -.00003037  00000+0 -90455-4 0  9999
2 60318  53.1609 188.7765 0001515 105.0721 255.0447 15.30200987107071
STARLINK-32182          
1 60319U 24133U   26169.55641964 -.00035608  00000+0 -11948-2 0  9994
2 60319  53.1571 188.5347 0001235  84.2875 275.8266 15.30229079107084
STARLINK-32199          
1 60320U 24133V   26169.35417517 -.00000683  00000+0 -10934-4 0  9990
2 60320  53.1594 189.4034 0001210 105.1290 254.9845 15.30193562107056
STARLINK-32198          
1 60321U 24133W   26169.55893705  .00092112  00000+0  30177-2 0  9995
2 60321  53.1597 188.5510 0001699  79.7044 280.4149 15.30899878107170
HULIANWAN GAOGUI-02 (H*)
1 60327U 24135A   26168.51850487 -.00000179  00000+0  00000+0 0  9990
2 60327   0.0433   1.4713 0007308   5.2904 238.8047  1.00267686  7504
STARLINK-31745          
1 60329U 24136A   26169.70091971  .00000264  00000+0  20260-4 0  9999
2 60329  53.1622 326.2179 0001452 101.0786 259.0379 15.31705959106340
STARLINK-32153          
1 60330U 24136B   26169.68848488 -.00000085  00000+0  92530-5 0  9993
2 60330  53.1615 326.8470 0001287  80.5500 279.5646 15.30194242105120
STARLINK-32203          
1 60331U 24136C   26169.66417738  .00000048  00000+0  12556-4 0  9999
2 60331  53.1624 316.0425 0000868  90.9831 269.1271 15.34396200105275
STARLINK-32171          
1 60332U 24136D   26169.69158662  .00000809  00000+0  37844-4 0  9993
2 60332  53.1616 326.1617 0001437  98.9824 261.1340 15.31703960105131
STARLINK-32133          
1 60333U 24136E   26169.68215969 -.00000768  00000+0 -13799-4 0  9996
2 60333  53.1612 326.8054 0001617  62.6831 297.4334 15.30198679105124
STARLINK-32132          
1 60334U 24136F   26169.67582663 -.00000284  00000+0  25429-5 0  9990
2 60334  53.1616 326.7647 0001847  58.4351 301.6830 15.30191392105125
STARLINK-32168          
1 60335U 24136G   26169.60733882 -.00005426  00000+0 -17110-3 0  9995
2 60335  53.1632 327.0419 0001744  66.7356 293.3828 15.30215277105110
STARLINK-32079          
1 60336U 24136H   26169.60417459  .00000098  00000+0  15448-4 0  9996
2 60336  53.1612 327.0280 0001056  99.8353 260.2767 15.30194342105119
STARLINK-32078          
1 60338U 24136K   26169.59995698 -.00000408  00000+0 -16435-5 0  9997
2 60338  53.1618 327.0022 0000946  91.5393 268.5716 15.30193663105111
STARLINK-32175          
1 60339U 24136L   26169.59784424  .00003051  00000+0  11509-3 0  9991
2 60339  53.1618 326.9881 0001462  83.6687 276.4480 15.30203678105119
STARLINK-32176          
1 60340U 24136M   26169.72532606 -.00000382  00000+0 -77422-6 0  9996
2 60340  53.1620 326.3624 0000794 106.6425 253.4662 15.30184978106306
STARLINK-32185          
1 60341U 24136N   26169.71791468  .00000493  00000+0  28780-4 0  9991
2 60341  53.1623 326.3126 0001023  89.3150 270.7968 15.30200831105133
STARLINK-32221          
1 60342U 24136P   26169.72108294  .00001305  00000+0  56189-4 0  9999
2 60342  53.1616 326.3298 0001171  74.2817 285.8312 15.30196768105136
STARLINK-32083          
1 60343U 24136Q   26169.72213690 -.00000536  00000+0 -59617-5 0  9994
2 60343  53.1619 326.3038 0001025  79.3856 280.7260 15.30195394105139
STARLINK-32077          
1 60344U 24136R   26169.71475219 -.00003062  00000+0 -91254-4 0  9990
2 60344  53.1621 326.2937 0001133  75.4223 284.6903 15.30209939105133
STARLINK-32075          
1 60345U 24136S   26169.71051612  .00001587  00000+0  65685-4 0  9995
2 60345  53.1615 326.2654 0000901  81.6469 278.4634 15.30208981105134
STARLINK-32082          
1 60346U 24136T   26169.71158377  .00000899  00000+0  42480-4 0  9995
2 60346  53.1635 326.2744 0001250  88.2366 271.8778 15.30199357105136
STARLINK-32084          
1 60347U 24136U   26169.68692227  .00000093  00000+0  14745-4 0  9998
2 60347  53.1630 326.1194 0001067  95.5555 264.5568 15.31699024105130
STARLINK-32081          
1 60348U 24136V   26169.60766591 -.00000435  00000+0 -22395-5 0  9990
2 60348  53.1615 326.3377 0001511  75.7219 284.3951 15.31705974105127
STARLINK-32181          
1 60349U 24136W   26169.67850455  .00000080  00000+0  13501-4 0  9993
2 60349  53.1616 324.6500 0001123  81.0075 279.1054 15.34393967105154
STARLINK-32076          
1 60350U 24136X   26169.60300073  .00000138  00000+0  16205-4 0  9992
2 60350  53.1621 326.3076 0001239 100.6423 259.4718 15.31703400105121
STARLINK-32097          
1 60351U 24136Y   26169.67640066  .00003220  00000+0  10638-3 0  9997
2 60351  53.1605 324.6336 0001138 100.9977 259.1154 15.34401043105154
STRIX-4                 
1 60352U 24137A   26169.65353672  .00014337  00000+0  45118-3 0  9993
2 60352  43.0153 276.6694 0018298 312.1531  47.7768 15.32627849104245
